NORAD_CAT_ID,OBJECT_NAME,OBJECT_TYPE,EPOCH,MEAN_MOTION,ECCENTRICITY,INCLINATION,RA_OF_ASC_NODE,ARG_OF_PERICENTER,MEAN_ANOMALY,BSTAR,MEAN_MOTION_DOT,MEAN_MOTION_DDOT,TLE_LINE0,TLE_LINE1,TLE_LINE2,SEMIMAJOR_AXIS,PERIOD,APOGEE,PERIGEE,DECAYED
54183.0,STARLINK-5239,PAYLOAD,2022-12-02 22:00:00,15.73195231,0.0003831,53.2159,326.3714,3.0555,255.9534,-0.00010611,-0.00015492,0.0,0 STARLINK-5239,1 54183U 22141AC  22336.91667824 -.00015492  00000-0 -10611-3 0  9995,2 54183  53.2159 326.3714 0003831   3.0555 255.9534 15.73195231  1301,6727.909000000002,91.533,352.351,347.196,0.0
54183.0,STARLINK-5239,PAYLOAD,2022-12-03 14:00:01,15.73179497,0.0004115,53.216,323.074,3.4613,73.3464,0.00015441,0.00021091,0.0,0 STARLINK-5239,1 54183U 22141AC  22337.58334491  .00021091  00000-0  15441-3 0  9996,2 54183  53.2160 323.0740 0004115   3.4613  73.3464 15.73179497  1301,6727.954000000002,91.534,352.587,347.05,0.0
54183.0,STARLINK-5239,PAYLOAD,2022-12-03 22:00:00,15.73199218,0.0003879,53.216,321.4229,5.1467,160.5725,0.00045305,0.00063461,0.0,0 STARLINK-5239,1 54183U 22141AC  22337.91667824  .00063461  00000-0  45305-3 0  9991,2 54183  53.2160 321.4229 0003879   5.1467 160.5725 15.73199218  6067,6727.897,91.533,352.372,347.153,0.0
54183.0,STARLINK-5239,PAYLOAD,2022-12-04 04:00:00,15.73260074,0.0004073,53.2157,320.1872,4.3373,138.0895,-0.00065285,-0.00091542,0.0,0 STARLINK-5239,1 54183U 22141AC  22338.16667824 -.00091542  00000-0 -65285-3 0  9991,2 54183  53.2157 320.1872 0004073   4.3373 138.0895 15.73260074  6109,6727.724,91.53,352.329,346.849,0.0
54183.0,STARLINK-5239,PAYLOAD,2022-12-04 12:00:00,15.7323592,0.0004038,53.2152,318.5361,1.6546,229.7268,-0.0002953,-0.00041946,0.0,0 STARLINK-5239,1 54183U 22141AC  22338.50001157 -.00041946  00000-0 -29530-3 0  9996,2 54183  53.2152 318.5361 0004038   1.6546 229.7268 15.73235920  6150,6727.793000000002,91.531,352.374,346.941,0.0
54183.0,STARLINK-5239,PAYLOAD,2022-12-04 14:00:01,15.73250246,0.0003944,53.2156,318.122,0.3158,343.3008,-0.00058635,-0.00082332,0.0,0 STARLINK-5239,1 54183U 22141AC  22338.58334491 -.00082332  00000-0 -58635-3 0  9996,2 54183  53.2156 318.1220 0003944   0.3158 343.3008 15.73250246  1309,6727.752,91.53,352.27,346.963,0.0
54183.0,STARLINK-5239,PAYLOAD,2022-12-04 22:00:00,15.73244437,0.000343,53.2163,316.4646,344.9077,87.6732,-0.0040889,-0.00540484,0.0,0 STARLINK-5239,1 54183U 22141AC  22338.91667824 -.00540484  00000-0 -40889-2 0  9990,2 54183  53.2163 316.4646 0003430 344.9077  87.6732 15.73244437  6220,6727.768,91.531,351.941,347.326,0.0
54183.0,STARLINK-5239,PAYLOAD,2022-12-05 06:00:00,15.72901271,0.000355,53.2171,314.8146,305.0629,216.3016,-0.0077274,-0.00972662,0.0,0 STARLINK-5239,1 54183U 22141AC  22339.25001157 -.00972662  00000-0 -77274-2 0  9994,2 54183  53.2171 314.8146 0003550 305.0629 216.3016 15.72901271  6276,6728.746999999999,91.551,353.001,348.223,0.0
54183.0,STARLINK-5239,PAYLOAD,2022-12-05 14:00:01,15.72253285,0.000438,53.2169,313.1661,289.5383,320.0168,-0.010062,-0.01223739,0.0,0 STARLINK-5239,1 54183U 22141AC  22339.58335648 -.01223739  00000-0 -10062-1 0  9991,2 54183  53.2169 313.1661 0004380 289.5383 320.0168 15.72253285  6324,6730.596,91.588,355.409,349.51300000000015,0.0
54183.0,STARLINK-5239,PAYLOAD,2022-12-05 22:00:01,15.713823,0.0006636,53.2176,311.5164,273.076,63.7305,-0.009659,-0.01123683,0.0,0 STARLINK-5239,1 54183U 22141AC  22339.91668981 -.01123683  00000-0 -96590-2 0  9995,2 54183  53.2176 311.5164 0006636 273.0760  63.7305 15.71382300  1302,6733.083000000001,91.639,359.416,350.47900000000016,0.0
54183.0,STARLINK-5239,PAYLOAD,2022-12-06 06:00:00,15.70654769,0.0006434,53.2173,309.877,271.7083,151.2301,-0.011048,-0.01253616,0.0,0 STARLINK-5239,1 54183U 22141AC  22340.25001157 -.01253616  00000-0 -11048-1 0  9994,2 54183  53.2173 309.8770 0006434 271.7083 151.2301 15.70654769  6439,6735.1619999999975,91.682,361.36,352.6930000000001,0.0
54183.0,STARLINK-5239,PAYLOAD,2022-12-06 14:00:01,15.69729323,0.000502,53.2168,308.2328,271.5687,236.7624,-0.010054,-0.01093051,0.0,0 STARLINK-5239,1 54183U 22141AC  22340.58335648 -.01093051  00000-0 -10054-1 0  9996,2 54183  53.2168 308.2328 0005020 271.5687 236.7624 15.69729323  1308,6737.808000000001,91.736,363.056,356.291,0.0
54183.0,STARLINK-5239,PAYLOAD,2022-12-06 22:00:00,15.68876411,0.0003563999999999,53.2167,306.5922,266.8136,325.7576,-0.0097782,-0.01031691,0.0,0 STARLINK-5239,1 54183U 22141AC  22340.91667824 -.01031691  00000-0 -97782-2 0  9993,2 54183  53.2167 306.5922 0003564 266.8136 325.7576 15.68876411  1300,6740.25,91.785,364.517,359.713,0.0
54183.0,STARLINK-5239,PAYLOAD,2022-12-07 06:00:00,15.6899703,0.0008236,53.2154,304.9665,271.5901,44.8911,0.00045402,0.0005325,0.0,0 STARLINK-5239,1 54183U 22141AC  22341.25001157  .00053250  00000-0  45402-3 0  9997,2 54183  53.2154 304.9665 0008236 271.5901  44.8911 15.68997030  6595,6739.905,91.778,367.321,356.219,0.0
54183.0,STARLINK-5239,PAYLOAD,2022-12-07 14:00:01,15.66781839,0.0001089,53.2176,303.3159,329.6306,68.8207,-0.0036794,-0.00378268,0.0,0 STARLINK-5239,1 54183U 22141AC  22341.58334491 -.00378268  00000-0 -36794-2 0  9997,2 54183  53.2176 303.3159 0001089 329.6306  68.8207 15.66781839  6649,6746.255999999999,91.908,368.856,367.386,0.0
54183.0,STARLINK-5239,PAYLOAD,2022-12-07 22:00:00,15.66500316,0.0001185,53.2177,301.6817,50.8174,68.7271,-0.011825,-0.01138073,0.0,0 STARLINK-5239,1 54183U 22141AC  22341.91667824 -.01138073  00000-0 -11825-1 0  9999,2 54183  53.2177 301.6817 0001185  50.8174  68.7271 15.66500316  6699,6747.064,91.925,369.729,368.13,0.0
54183.0,STARLINK-5239,PAYLOAD,2022-12-08 14:00:01,15.6488,0.0001141,53.2173,298.4204,76.3451,202.9726,-0.012727,-0.01146384,0.0,0 STARLINK-5239,1 54183U 22141AC  22342.58334491 -.01146384  00000-0 -12727-1 0  9990,2 54183  53.2173 298.4204 0001141  76.3451 202.9726 15.64880000  1300,6751.721,92.02,374.356,372.816,0.0
54183.0,STARLINK-5239,PAYLOAD,2022-12-08 22:00:01,15.64058083,0.0001038,53.2176,296.791,75.7992,282.0117,-0.013016,-0.01135585,0.0,0 STARLINK-5239,1 54183U 22141AC  22342.91668981 -.01135585  00000-0 -13016-1 0  9994,2 54183  53.2176 296.7910 0001038  75.7992 282.0117 15.64058083  1307,6754.0859999999975,92.068,376.652,375.25,0.0
54183.0,STARLINK-5239,PAYLOAD,2022-12-09 14:00:01,15.62430746,0.000119,53.2173,293.5413,80.5579,71.0991,-0.013888,-0.01136091,0.0,0 STARLINK-5239,1 54183U 22141AC  22343.58334491 -.01136091  00000-0 -13888-1 0  9994,2 54183  53.2173 293.5413 0001190  80.5579  71.0991 15.62430746  1305,6758.775,92.164,381.444,379.836,0.0
54183.0,STARLINK-5239,PAYLOAD,2022-12-10 00:00:00,15.61416083,0.0001076,53.2172,291.5139,84.0634,251.8005,-0.014495,-0.01139204,0.0,0 STARLINK-5239,1 54183U 22141AC  22344.00001157 -.01139204  00000-0 -14495-1 0  9996,2 54183  53.2172 291.5139 0001076  84.0634 251.8005 15.61416083  7027,6761.703,92.224,384.295,382.84,0.0
54183.0,STARLINK-5239,PAYLOAD,2022-12-10 14:00:01,15.59988915,9.88e-05,53.2176,288.6797,86.7194,288.4717,-0.015244,-0.01134101,0.0,0 STARLINK-5239,1 54183U 22141AC  22344.58334491 -.01134101  00000-0 -15244-1 0  9993,2 54183  53.2176 288.6797 0000988  86.7194 288.4717 15.59988915  1305,6765.826,92.308,388.36,387.023,0.0
54183.0,STARLINK-5239,PAYLOAD,2022-12-10 22:00:00,15.59174848,0.0001179,53.2178,287.0632,67.6341,20.1119,-0.015711,-0.01133044,0.0,0 STARLINK-5239,1 54183U 22141AC  22344.91667824 -.01133044  00000-0 -15711-1 0  9993,2 54183  53.2178 287.0632 0001179  67.6341  20.1119 15.59174848  1302,6768.181,92.357,390.844,389.24800000000016,0.0
54183.0,STARLINK-5239,PAYLOAD,2022-12-11 14:00:01,15.57548541,0.0001225,53.2176,283.8362,76.4876,153.4349,-0.016737,-0.011345,0.0,0 STARLINK-5239,1 54183U 22141AC  22345.58334491 -.01134500  00000-0 -16737-1 0  9995,2 54183  53.2176 283.8362 0001225  76.4876 153.4349 15.57548541  7266,6772.891,92.453,395.586,393.927,0.0
54183.0,STARLINK-5239,PAYLOAD,2022-12-11 22:00:01,15.56734084,0.0001129,53.2176,282.2258,96.0888,203.5204,-0.01723,-0.01132777,0.0,0 STARLINK-5239,1 54183U 22141AC  22345.91668981 -.01132777  00000-0 -17230-1 0  9999,2 54183  53.2176 282.2258 0001129  96.0888 203.5204 15.56734084  1301,6775.254,92.501,397.883,396.354,0.0
54183.0,STARLINK-5239,PAYLOAD,2022-12-12 14:00:01,15.55104613,0.0001056,53.2175,279.0106,93.083,342.7723,-0.018251,-0.01129451,0.0,0 STARLINK-5239,1 54183U 22141AC  22346.58334491 -.01129451  00000-0 -18251-1 0  9998,2 54183  53.2175 279.0106 0001056  93.0830 342.7723 15.55104613  7428,6779.986,92.598,402.567,401.135,0.0
54183.0,STARLINK-5239,PAYLOAD,2022-12-12 22:00:00,15.54306695,0.0001196,53.2169,277.4067,82.3285,60.2068,-0.019184,-0.01150462,0.0,0 STARLINK-5239,1 54183U 22141AC  22346.91667824 -.01150462  00000-0 -19184-1 0  9996,2 54183  53.2169 277.4067 0001196  82.3285  60.2068 15.54306695  1307,6782.306,92.646,404.982,403.36,0.0
54183.0,STARLINK-5239,PAYLOAD,2022-12-13 06:00:00,15.53473845,0.0001258,53.2175,275.8051,93.1377,115.1161,-0.019264,-0.01123332,0.0,0 STARLINK-5239,1 54183U 22141AC  22347.25001157 -.01123332  00000-0 -19264-1 0  9990,2 54183  53.2175 275.8051 0001258  93.1377 115.1161 15.53473845  7525,6784.73,92.695,407.448,405.741,0.0
54183.0,STARLINK-5239,PAYLOAD,2022-12-13 14:00:01,15.52664082,0.0001189,53.2177,274.2024,104.057,168.9291,-0.019969,-0.01129813,0.0,0 STARLINK-5239,1 54183U 22141AC  22347.58334491 -.01129813  00000-0 -19969-1 0  9998,2 54183  53.2177 274.2024 0001189 104.0570 168.9291 15.52664082  1304,6787.0880000000025,92.744,409.76,408.146,0.0
54183.0,STARLINK-5239,PAYLOAD,2022-12-13 22:00:00,15.51605815,0.0001486,53.2175,272.606,78.8014,257.9708,-0.0025157,-0.00149413,0.0,0 STARLINK-5239,1 54183U 22141AC  22347.91667824 -.00149413  00000-0 -25157-2 0  9998,2 54183  53.2175 272.6060 0001486  78.8014 257.9708 15.51605815  7637,6790.174,92.807,413.048,411.03,0.0
